{
  "62468": {
    "noradId": "62468",
    "tle": [
      "1 62468C 24254G   26068.79423611 -.00013473  00000+0 -10461-3 0   689",
      "2 62468  43.0001 222.3698 0002161 262.4624 235.8137 15.70857296    14"
    ]
  },
  "62469": {
    "noradId": "62469",
    "tle": [
      "1 62469C 24254H   26068.79284722 -.00018776  00000+0 -14582-3 0   687",
      "2 62469  43.0001 222.2283 0001836 261.7926 288.7551 15.70858860    14"
    ]
  },
  "62470": {
    "noradId": "62470",
    "tle": [
      "1 62470C 24254J   26068.79354167 -.00010865  00000+0 -84366-4 0   689",
      "2 62470  43.0002 222.4479 0001775 251.5124 212.7746 15.70855178    17"
    ]
  },
  "62471": {
    "noradId": "62471",
    "tle": [
      "1 62471C 24254K   26068.79701389 -.00022540  00000+0 -16246-3 0   686",
      "2 62471  42.9999 222.3321 0001621 274.5176 247.6660 15.72624815    14"
    ]
  },
  "62472": {
    "noradId": "62472",
    "tle": [
      "1 62472C 24254L   26068.79215278  .00007508  00000+0  58300-4 0   687",
      "2 62472  43.0002 222.0812 0001559 271.1550 335.5709 15.70838412    12"
    ]
  },
  "62473": {
    "noradId": "62473",
    "tle": [
      "1 62473C 24254M   26068.79215278 -.00018637  00000+0 -14472-3 0   686",
      "2 62473  43.0002 222.5294 0001297 271.1654 155.1997 15.70863384    17"
    ]
  },
  "62474": {
    "noradId": "62474",
    "tle": [
      "1 62474C 24254N   26068.79493056 -.00024829  00000+0 -19278-3 0   688",
      "2 62474  43.0002 222.2880 0001684 265.3041 266.9633 15.70871214    10"
    ]
  },
  "62475": {
    "noradId": "62475",
    "tle": [
      "1 62475C 24254P   26068.76368056 -.00025966  00000+0 -94034-3 0   683",
      "2 62475  43.0016  19.2562 0001479 258.1002 194.6031 15.27609324    18"
    ]
  },
  "62476": {
    "noradId": "62476",
    "tle": [
      "1 62476C 24254Q   26068.76437500 -.00019056  00000+0 -69033-3 0   689",
      "2 62476  43.0038  16.0967 0001483 267.7986  58.7528 15.27590508    13"
    ]
  },
  "62477": {
    "noradId": "62477",
    "tle": [
      "1 62477C 24254R   26068.76298611 -.00000407  00000+0 -14750-4 0   685",
      "2 62477  43.0018  15.5777 0001454 266.8521 271.3781 15.27566985    14"
    ]
  },
  "62478": {
    "noradId": "62478",
    "tle": [
      "1 62478C 24254S   26068.76437500  .00009872  00000+0  35764-3 0   688",
      "2 62478  43.0034  15.9570 0001405 271.1613 111.9817 15.27561440    15"
    ]
  },
  "62479": {
    "noradId": "62479",
    "tle": [
      "1 62479C 24254T   26068.76298611 -.00014102  00000+0 -51088-3 0   688",
      "2 62479  43.0017   8.3811 0001455 267.8101  25.3441 15.27585599    12"
    ]
  },
  "62480": {
    "noradId": "62480",
    "tle": [
      "1 62480C 24254U   26068.76506944 -.00009336  00000+0 -33814-3 0   681",
      "2 62480  43.0021  15.4631 0001636 271.6220 320.4609 15.27588599    12"
    ]
  },
  "62481": {
    "noradId": "62481",
    "tle": [
      "1 62481C 24254V   26068.76715278  .00007696  00000+0  27883-3 0   688",
      "2 62481  43.0017  15.6555 0001397 266.7043 252.0030 15.27561315    12"
    ]
  },
  "62482": {
    "noradId": "62482",
    "tle": [
      "1 62482C 24254W   26068.76090278 -.00006172  00000+0 -22361-3 0   681",
      "2 62482  43.0020  19.1849 0001540 260.0953 212.7208 15.27576996    10"
    ]
  },
  "62487": {
    "noradId": "62487",
    "tle": [
      "1 62487C 25003A   26068.76576389  .00002471  00000+0  89478-4 0   680",
      "2 62487  43.0004 288.6124 0001207 258.5106  58.2466 15.27589466    13"
    ]
  },
  "62488": {
    "noradId": "62488",
    "tle": [
      "1 62488C 25003B   26068.76784722  .00001486  00000+0  53814-4 0   683",
      "2 62488  43.0017 288.1546 0001551 270.9595 241.2852 15.27580950    15"
    ]
  },
  "62489": {
    "noradId": "62489",
    "tle": [
      "1 62489C 25003C   26068.76229167  .00010152  00000+0  36773-3 0   685",
      "2 62489  43.0026 288.8294 0001451 265.4388 307.3971 15.27566132    13"
    ]
  },
  "62490": {
    "noradId": "62490",
    "tle": [
      "1 62490C 25003D   26068.76159722  .00002674  00000+0  96853-4 0   682",
      "2 62490  43.0007 288.6840 0001787 265.3629   7.3211 15.27572517    16"
    ]
  },
  "62491": {
    "noradId": "62491",
    "tle": [
      "1 62491C 25003E   26068.76159722 -.00008403  00000+0 -30438-3 0   687",
      "2 62491  43.0007 288.4308 0001458 268.6853 110.1308 15.27583552    15"
    ]
  },
  "62492": {
    "noradId": "62492",
    "tle": [
      "1 62492C 25003F   26068.76159722  .00008934  00000+0  32356-3 0   686",
      "2 62492  43.0016 288.7636 0001324 269.6107 327.7007 15.27570758    14"
    ]
  },
  "62493": {
    "noradId": "62493",
    "tle": [
      "1 62493C 25003G   26068.76715278  .00001063  00000+0  38500-4 0   685",
      "2 62493  43.0038 288.9042 0001574 265.9517 291.2023 15.27571081    16"
    ]
  },
  "62494": {
    "noradId": "62494",
    "tle": [
      "1 62494C 25003H   26068.76090278 -.00004681  00000+0 -16956-3 0   683",
      "2 62494  43.0003 288.2941 0001480 265.4725 166.1035 15.27583470    10"
    ]
  },
  "62495": {
    "noradId": "62495",
    "tle": [
      "1 62495C 25003J   26068.76506944 -.00002307  00000+0 -83564-4 0   689",
      "2 62495  43.0011 288.6958 0001370 269.3364   8.3275 15.27576153    15"
    ]
  },
  "62496": {
    "noradId": "62496",
    "tle": [
      "1 62496C 25003K   26068.76159722 -.00003024  00000+0 -10957-3 0   680",
      "2 62496  43.0013 288.2450 0001854 263.6298 193.0054 15.27573898    11"
    ]
  },
  "62497": {
    "noradId": "62497",
    "tle": [
      "1 62497C 25003L   26068.76715278  .00012532  00000+0  45397-3 0   683",
      "2 62497  43.0002 288.3053 0001400 266.1006 178.6934 15.27560435    11"
    ]
  },
  "62498": {
    "noradId": "62498",
    "tle": [
      "1 62498C 25003M   26068.76159722  .00000169  00000+0  61048-5 0   686",
      "2 62498  43.0001 288.5433 0001439 268.3500  60.9304 15.27576119    10"
    ]
  },
  "62499": {
    "noradId": "62499",
    "tle": [
      "1 62499C 25003N   26068.76715278  .00000127  00000+0  46050-5 0   681",
      "2 62499  43.0037 288.8899 0001618 273.1687 291.0470 15.27580109    13"
    ]
  },
  "62500": {
    "noradId": "62500",
    "tle": [
      "1 62500C 25003P   26068.76229167  .00021882  00000+0  79273-3 0   683",
      "2 62500  43.0023 288.8134 0001385 268.6829 311.2459 15.27550489    11"
    ]
  },
  "62501": {
    "noradId": "62501",
    "tle": [
      "1 62501C 25003Q   26068.76784722 -.00006370  00000+0 -23072-3 0   680",
      "2 62501  43.0002 288.4891 0001512 264.8477 105.9264 15.27581792    17"
    ]
  },
  "62502": {
    "noradId": "62502",
    "tle": [
      "1 62502C 25003R   26068.76715278  .00002115  00000+0  76617-4 0   686",
      "2 62502  43.0007 288.4461 0001463 268.6528 119.5112 15.27577105    16"
    ]
  },
  "62503": {
    "noradId": "62503",
    "tle": [
      "1 62503C 25003S   26068.76090278  .00006552  00000+0  23731-3 0   680",
      "2 62503  43.0010 288.2586 0001618 266.9586 178.7907 15.27570488    10"
    ]
  },
  "62504": {
    "noradId": "62504",
    "tle": [
      "1 62504C 25003T   26068.76506944 -.00000957  00000+0 -34658-4 0   689",
      "2 62504  43.0022 288.1135 0001851 278.1598 240.0229 15.27583214    11"
    ]
  },
  "62505": {
    "noradId": "62505",
    "tle": [
      "1 62505C 25003U   26068.76576389 -.00073740  00000+0 -26714-2 0   682",
      "2 62505  43.0020 288.1142 0001746 278.9344 236.0688 15.27644674    10"
    ]
  },
  "62506": {
    "noradId": "62506",
    "tle": [
      "1 62506C 25003V   26068.76506944 -.00000600  00000+0 -21732-4 0   685",
      "2 62506  43.0005 269.9931 0001544 279.2897  42.7737 15.27592692    19"
    ]
  },
  "62507": {
    "noradId": "62507",
    "tle": [
      "1 62507C 25003W   26068.76715278  .00006162  00000+0  22318-3 0   685",
      "2 62507  43.0035 288.8978 0001484 266.7618 276.2638 15.27575505    17"
    ]
  },
  "62508": {
    "noradId": "62508",
    "tle": [
      "1 62508C 25003X   26068.76576389  .00001510  00000+0  54682-4 0   686",
      "2 62508  43.0003 288.3645 0001591 269.7414 146.1656 15.27574174    11"
    ]
  },
  "62509": {
    "noradId": "62509",
    "tle": [
      "1 62509C 25003Y   26068.76437500  .00022414  00000+0  81249-3 0   682",
      "2 62509  43.0030 288.8538 0001199 263.7659 306.4614 15.27530491    16"
    ]
  },
  "62510": {
    "noradId": "62510",
    "tle": [
      "1 62510C 25003Z   26068.76298611  .00013032  00000+0  47204-3 0   681",
      "2 62510  43.0002 288.5697 0001457 263.8761  58.9136 15.27564668    13"
    ]
  },
  "62511": {
    "noradId": "62511",
    "tle": [
      "1 62511C 25004A   26068.79631944 -.00006398  00000+0 -49691-4 0   688",
      "2 62511  43.0009  70.0642 0001517 260.2882 170.1630 15.70844394    18"
    ]
  },
  "62512": {
    "noradId": "62512",
    "tle": [
      "1 62512C 25004B   26068.79840278 -.00006437  00000+0 -50008-4 0   689",
      "2 62512  43.0008  70.4998 0001494 261.0736   0.8320 15.70840826    18"
    ]
  },
  "62513": {
    "noradId": "62513",
    "tle": [
      "1 62513C 25004C   26068.79215278  .00005533  00000+0  42969-4 0   687",
      "2 62513  43.0008  70.3127 0001399 270.4017  46.2831 15.70838732    16"
    ]
  },
  "62514": {
    "noradId": "62514",
    "tle": [
      "1 62514C 25004D   26068.79423611 -.00016592  00000+0 -12889-3 0   686",
      "2 62514  43.0009  70.0133 0001261 264.1110 179.4554 15.70851790    14"
    ]
  },
  "62515": {
    "noradId": "62515",
    "tle": [
      "1 62515C 25004E   26068.79631944 -.00006367  00000+0 -49451-4 0   682",
      "2 62515  43.0005  69.9126 0001507 258.1699 232.4104 15.70845820    16"
    ]
  },
  "62516": {
    "noradId": "62516",
    "tle": [
      "1 62516C 25004F   26068.79284722 -.00001977  00000+0 -15352-4 0   686",
      "2 62516  43.0009  70.3817 0001394 260.4571  30.1025 15.70844181    17"
    ]
  }
}